IRIDIUM 57 [-]          
1 25273U 98019B   23266.11613062  .00000646  00000+0  22072-3 0  9996
2 25273  86.3955  50.3361 0002092  92.1627 267.9809 14.34903358334185
IRIDIUM 63 [-]          
1 25286U 98021B   23266.30692758  .00000630  00000+0  21273-3 0  9998
2 25286  86.4040 347.2258 0002231  97.7278 262.4172 14.35413854333298
IRIDIUM 69 [-]          
1 25319U 98026A   23266.32105071  .00000977  00000+0  30675-3 0  9999
2 25319  86.4048   2.3676 0001343  18.0942 342.0305 14.39571755332216
IRIDIUM 71 [-]          
1 25320U 98026B   23265.82548420  .00000807  00000+0  25069-3 0  9997
2 25320  86.4040 357.4168 0003332  54.5212 305.6297 14.39910994332414
IRIDIUM 73 [-]          
1 25344U 98032C   23266.52745768  .00000728  00000+0  18268-3 0  9997
2 25344  86.4415 315.0061 0001938  76.0953 284.0467 14.50028605339136
IRIDIUM 82 [-]          
1 25467U 98051A   23265.86122965  .00018277  00000+0  10843-2 0  9996
2 25467  86.3933  51.8409 0150043 120.3506 241.2664 15.02142409328102
IRIDIUM 2 [-]           
1 25527U 98066A   23266.04913473  .00037563  00000+0  93673-3 0  9994
2 25527  85.5173 112.0693 0003444 289.3230  70.7650 15.40039805365718
